YAOGAN-17 01A           
1 39239U 13046A   26189.55919144 -.00000071  00000+0  19432-4 0  9995
2 39239  63.3866  35.1079 0428005  12.0109 349.0743 13.45509958631163
YAOGAN-17 01B           
1 39240U 13046B   26189.60495311 -.00000034  00000+0  54683-4 0  9994
2 39240  63.3876  35.6184 0428127  11.5402 349.5070 13.45476203631213
YAOGAN-17 01C           
1 39241U 13046C   26189.57723034 -.00000168  00000+0 -74890-4 0  9998
2 39241  63.3872  34.4847 0428921  11.6271 349.4289 13.45482139631250
GONETS-M 5              
1 39249U 13048A   26189.60757067 -.00000051  00000+0 -44286-3 0  9991
2 39249  82.4849 330.0275 0017066 163.5111 196.6527 12.42892118581549
GONETS-M 6              
1 39250U 13048B   26189.57393721 -.00000001  00000+0 -78271-4 0  9999
2 39250  82.4878 330.9462 0019006 196.5447 163.5015 12.43031496581601
GONETS-M 7              
1 39251U 13048C   26189.57013890  .00000006  00000+0 -27315-4 0  9993
2 39251  82.4916 332.9842 0017853 164.8786 195.2831 12.42915109581497
HISAKI (SPRINT-A)       
1 39253U 13049A   26189.48678398  .00000093  00000+0  35828-4 0  9999
2 39253  29.7196 111.7184 0136922 189.5384 170.2575 13.55546331634312
AEHF-3 (USA 246)        
1 39256U 13050A   26189.47961462  .00000040  00000+0  00000+0 0  9991
2 39256   5.3450  66.9909 0088287 187.6945  80.1602  1.00269386 45861
FENGYUN 3C              
1 39260U 13052A   26189.52851881  .00000054  00000+0  48590-4 0  9993
2 39260  98.4992 162.4248 0013977 326.2831  33.7453 14.15759753661580
CASSIOPE                
1 39265U 13055A   26189.60085326  .00031002 -49159-6  33337-3 0  9998
2 39265  80.9138  40.6768 0284478 350.2570   9.3208 15.27090594670931
POPACS 2                
1 39269U 13055E   26189.24274161  .00012393 -88328-6  20236-3 0  9996
2 39269  80.9910 120.0851 0415514 126.1925 237.8477 14.91823858666354
POPACS 3                
1 39270U 13055F   26189.48606341  .00008965  00000+0  21220-3 0  9990
2 39270  80.9993 206.0862 0549621   5.1431 355.5089 14.56541276641654
ASTRA 2E                
1 39285U 13056A   26189.50517010  .00000165  00000+0  00000+0 0  9997
2 39285   0.0662 324.7504 0002566 151.1232  20.9277  1.00270497 46638
SHIJIAN-16 (SJ-16)      
1 39358U 13057A   26189.55378132  .00000547  00000+0  55791-4 0  9990
2 39358  74.9738 316.2136 0016028 180.7652 179.3515 14.92656613689531
FM-6                    
1 39360U 13058A   26189.54775418  .00000000  00000+0  00000+0 0  9993
2 39360   0.0458  68.7412 0002893 115.7141 182.9035  1.00270988 46283
RADUGA-1M 3             
1 39375U 13062A   26189.29263780  .00000163  00000+0  00000+0 0  9990
2 39375   6.0085  72.0835 0001802 272.4466  82.0517  1.00272525 46316
YAOGAN-19               
1 39410U 13065A   26189.53355722  .00000120  00000+0  42914-3 0  9995
2 39410 100.1128 164.9809 0010053  41.6979 318.4900 13.15583305606454
APRIZESAT 7             
1 39416U 13066A   26189.35264643  .00001034  00000+0  10743-3 0  9993
2 39416  97.7718 142.2697 0036772 139.2803 221.1176 14.91609152684383
ZACUBE-1 (TSHEPISOSAT)  
1 39417U 13066B   26188.93645073  .00001404  00000+0  11193-3 0  9998
2 39417  97.8020 151.3770 0043545 178.4838 181.6526 15.01306371683841
SKYSAT-A                
1 39418U 13066C   26189.42037418  .00002119  00000+0  12281-3 0  9995
2 39418  97.3804 238.1409 0019973 238.1447 121.7841 15.13090973691696
DUBAISAT-2              
1 39419U 13066D   26189.53760902  .00001006  00000+0  65120-4 0  9994
2 39419  97.4575 179.1253 0009935 329.1115  30.9529 15.10339869689614
OPTOS                   
1 39420U 13066E   26189.41351002  .00000769  00000+0  11721-3 0  9992
2 39420  97.6786  53.1065 0115157 303.5631  55.4623 14.72379224674647
STSAT-3                 
1 39422U 13066G   26189.55266597  .00001132  00000+0  88864-4 0  9991
2 39422  97.6201 159.0970 0009039 333.2402  26.8356 15.02866040687414
WNISAT-1                
1 39423U 13066H   26188.93602481  .00000973  00000+0  18457-3 0  9991
2 39423  97.7227 336.6221 0163391 166.0778 194.5009 14.58108160669753
APRIZESAT 8             
1 39425U 13066K   26189.26128369  .00000612  00000+0  72230-4 0  9998
2 39425  97.8227 136.4364 0044922 215.0065 144.8197 14.87689126682807
TRITON-1                
1 39427U 13066M   26189.56761583  .00001119  00000+0  13897-3 0  9990
2 39427  97.8222  98.8863 0090059 163.6141 196.8017 14.81779032677255
GOMX-1                  
1 39430U 13066Q   26189.49850787  .00001039  00000+0  16192-3 0  9993
2 39430  97.6476  28.6162 0128873   9.7097 350.6555 14.69531389673044
CUBEBUG-2 (LO-74)       
1 39440U 13066AA  26189.29650490  .00001757  00000+0  16589-3 0  9998
2 39440  97.8910 138.3670 0056194 318.9114  40.7880 14.93939383680144
NEE-02 KRYSAOR          
1 39441U 13066AB  26189.27579641  .00001374  00000+0  15492-3 0  9992
2 39441  97.8887 128.3413 0066040   2.0720 358.0757 14.86719769679330
FUNCUBE-1 (AO-73)       
1 39444U 13066AE  26189.33367698  .00004760  00000+0  29429-3 0  9996
2 39444  97.8284 161.2250 0037706 130.0497 230.4049 15.09759525682857
