OBJECT_NAME,OBJECT_ID,EPOCH,MEAN_MOTION,ECCENTRICITY,INCLINATION,RA_OF_ASC_NODE,ARG_OF_PERICENTER,MEAN_ANOMALY,EPHEMERIS_TYPE,CLASSIFICATION_TYPE,NORAD_CAT_ID,ELEMENT_SET_NO,REV_AT_EPOCH,BSTAR,MEAN_MOTION_DOT,MEAN_MOTION_DDOT
YAOGAN-17 01A,2013-046A,2026-07-08T13:25:14.140416,13.45509958,.04280051,63.3866,35.1079,12.0109,349.0743,0,U,39239,999,63116,.19432474E-4,-.71E-6,0
YAOGAN-17 01B,2013-046B,2026-07-08T14:31:07.948704,13.45476203,.04281279,63.3876,35.6184,11.5402,349.5070,0,U,39240,999,63121,.5468254E-4,-.34E-6,0
YAOGAN-17 01C,2013-046C,2026-07-08T13:51:12.701376,13.45482139,.04289212,63.3872,34.4847,11.6271,349.4289,0,U,39241,999,63125,-.74890045E-4,-.168E-5,0
GONETS-M 5,2013-048A,2026-07-08T14:34:54.105888,12.42892118,.00170662,82.4849,330.0275,163.5111,196.6527,0,U,39249,999,58154,-.44286354E-3,-.51E-6,0
GONETS-M 6,2013-048B,2026-07-08T13:46:28.174944,12.43031496,.00190064,82.4878,330.9462,196.5447,163.5015,0,U,39250,999,58160,-.78271158E-4,-.1E-7,0
GONETS-M 7,2013-048C,2026-07-08T13:41:00.000960,12.42915109,.00178534,82.4916,332.9842,164.8786,195.2831,0,U,39251,999,58149,-.27314598E-4,.6E-7,0
HISAKI (SPRINT-A),2013-049A,2026-07-08T11:40:58.135872,13.55546331,.01369221,29.7196,111.7184,189.5384,170.2575,0,U,39253,999,63431,.35827976E-4,.93E-6,0
AEHF-3 (USA 246),2013-050A,2026-07-08T11:30:38.703168,1.00269386,.00882877,5.3450,66.9909,187.6945,80.1602,0,U,39256,999,4586,0,.4E-6,0
FENGYUN 3C,2013-052A,2026-07-08T12:41:04.025184,14.15759753,.00139771,98.4992,162.4248,326.2831,33.7453,0,U,39260,999,66158,.48590464E-4,.54E-6,0
CASSIOPE,2013-055A,2026-07-08T14:25:13.721664,15.27090594,.02844787,80.9138,40.6768,350.2570,9.3208,0,U,39265,999,67093,.3333655E-3,.31002E-3,-.491593E-6
POPACS 2,2013-055E,2026-07-08T05:49:32.875104,14.91823858,.04155143,80.9910,120.0851,126.1925,237.8477,0,U,39269,999,66635,.20236197E-3,.12393E-3,-.883277E-6
POPACS 3,2013-055F,2026-07-08T11:39:55.878624,14.56541276,.05496215,80.9993,206.0862,5.1431,355.5089,0,U,39270,999,64165,.21220132E-3,.8965E-4,0
ASTRA 2E,2013-056A,2026-07-08T12:07:26.696640,1.00270497,.00025662,0.0662,324.7504,151.1232,20.9277,0,U,39285,999,4663,0,.165E-5,0
SHIJIAN-16 (SJ-16),2013-057A,2026-07-08T13:17:26.706048,14.92656613,.0016028,74.9738,316.2136,180.7652,179.3515,0,U,39358,999,68953,.55790715E-4,.547E-5,0
FM-6,2013-058A,2026-07-08T13:08:45.961152,1.00270988,.00028935,0.0458,68.7412,115.7141,182.9035,0,U,39360,999,4628,0,0,0
RADUGA-1M 3,2013-062A,2026-07-08T07:01:23.905920,1.00272525,.00018029,6.0085,72.0835,272.4466,82.0517,0,U,39375,999,4631,0,.163E-5,0
YAOGAN-19,2013-065A,2026-07-08T12:48:19.343808,13.15583305,.00100537,100.1128,164.9809,41.6979,318.4900,0,U,39410,999,60645,.42913661E-3,.12E-5,0
APRIZESAT 7,2013-066A,2026-07-08T08:27:48.651552,14.91609152,.00367724,97.7718,142.2697,139.2803,221.1176,0,U,39416,999,68438,.10743125E-3,.1034E-4,0
ZACUBE-1 (TSHEPISOSAT),2013-066B,2026-07-07T22:28:29.343072,15.01306371,.00435451,97.8020,151.3770,178.4838,181.6526,0,U,39417,999,68384,.11193336E-3,.1404E-4,0
SKYSAT-A,2013-066C,2026-07-08T10:05:20.329152,15.13090973,.00199733,97.3804,238.1409,238.1447,121.7841,0,U,39418,999,69169,.12280577E-3,.2119E-4,0
DUBAISAT-2,2013-066D,2026-07-08T12:54:09.419328,15.10339869,.00099356,97.4575,179.1253,329.1115,30.9529,0,U,39419,999,68961,.65120199E-4,.1006E-4,0
OPTOS,2013-066E,2026-07-08T09:55:27.265728,14.72379224,.01151574,97.6786,53.1065,303.5631,55.4623,0,U,39420,999,67464,.11721016E-3,.769E-5,0
STSAT-3,2013-066G,2026-07-08T13:15:50.339808,15.02866040,.00090397,97.6201,159.0970,333.2402,26.8356,0,U,39422,999,68741,.88863993E-4,.1132E-4,0
WNISAT-1,2013-066H,2026-07-07T22:27:52.543584,14.58108160,.01633917,97.7227,336.6221,166.0778,194.5009,0,U,39423,999,66975,.18457217E-3,.973E-5,0
APRIZESAT 8,2013-066K,2026-07-08T06:16:14.910816,14.87689126,.00449226,97.8227,136.4364,215.0065,144.8197,0,U,39425,999,68280,.72230135E-4,.612E-5,0
TRITON-1,2013-066M,2026-07-08T13:37:22.007712,14.81779032,.00900598,97.8222,98.8863,163.6141,196.8017,0,U,39427,999,67725,.1389745E-3,.1119E-4,0
GOMX-1,2013-066Q,2026-07-08T11:57:51.079968,14.69531389,.01288731,97.6476,28.6162,9.7097,350.6555,0,U,39430,999,67304,.16191526E-3,.1039E-4,0
CUBEBUG-2 (LO-74),2013-066AA,2026-07-08T07:06:58.023360,14.93939383,.0056194,97.8910,138.3670,318.9114,40.7880,0,U,39440,999,68014,.16589136E-3,.1757E-4,0
NEE-02 KRYSAOR,2013-066AB,2026-07-08T06:37:08.809824,14.86719769,.00660405,97.8887,128.3413,2.0720,358.0757,0,U,39441,999,67933,.15492257E-3,.1374E-4,0
FUNCUBE-1 (AO-73),2013-066AE,2026-07-08T08:00:29.691072,15.09759525,.00377065,97.8284,161.2250,130.0497,230.4049,0,U,39444,999,68285,.2942867E-3,.476E-4,0
